[{"OBJECT_NAME":"YAOGAN-43 01C","OBJECT_ID":"2024-148C","EPOCH":"2026-03-09T10:59:35.487168","MEAN_MOTION":15.23248363,"ECCENTRICITY":0.00048948,"INCLINATION":35.0004,"RA_OF_ASC_NODE":69.8276,"ARG_OF_PERICENTER":10.3083,"MEAN_ANOMALY":349.7732,"EPHEMERIS_TYPE":0,"CLASSIFICATION_TYPE":"U","NORAD_CAT_ID":60460,"ELEMENT_SET_NO":999,"REV_AT_EPOCH":8692,"BSTAR":0.00057210581,"MEAN_MOTION_DOT":0.00013877,"MEAN_MOTION_DDOT":0},{"OBJECT_NAME":"FENGYUN 1C DEB","OBJECT_ID":"1999-025EJQ","EPOCH":"2026-03-08T21:27:56.444256","MEAN_MOTION":15.23229897,"ECCENTRICITY":0.00101559,"INCLINATION":98.6645,"RA_OF_ASC_NODE":227.592,"ARG_OF_PERICENTER":263.6857,"MEAN_ANOMALY":96.3219,"EPHEMERIS_TYPE":0,"CLASSIFICATION_TYPE":"U","NORAD_CAT_ID":37470,"ELEMENT_SET_NO":999,"REV_AT_EPOCH":66762,"BSTAR":0.011057202,"MEAN_MOTION_DOT":0.00271626,"MEAN_MOTION_DDOT":0}]
